HULIANWANG DIGUI-44     
1 65047U 25162E   26194.89646410 -.00000110  00000+0  31042-4 0  9994
2 65047  49.9998 169.8968 0001436 324.9019  35.1759 13.29318583 46925
HULIANWANG DIGUI-45     
1 65048U 25162F   26194.88824655 -.00000109  00000+0  33331-4 0  9994
2 65048  50.0027 169.9372 0000274 308.3107  51.7741 13.29327195 46918
HULIANWANG DIGUI-46     
1 65049U 25162G   26194.87991560 -.00000112  00000+0  24926-4 0  9998
2 65049  50.0045 169.9439 0000256 304.8238  55.2610 13.29326993 46918
HULIANWANG DIGUI-47     
1 65050U 25162H   26194.87156362 -.00000116  00000+0  16307-4 0  9991
2 65050  50.0009 169.8035 0000284 294.7999  65.2844 13.29326594 46910
HULIANWANG DIGUI-48     
1 65051U 25162J   26194.86320625 -.00000117  00000+0  15627-4 0  9991
2 65051  50.0020 169.7871 0000282 307.6545  52.4301 13.29327301 46913
HULIANWANG DIGUI-49     
1 65106U 25168A   26194.85021360 -.00000081  00000+0  93258-4 0  9997
2 65106  50.0012 230.3382 0008329 187.1338 172.9417 13.29321883 46238
HULIANWANG DIGUI-50     
1 65107U 25168B   26194.84180936 -.00000077  00000+0  10086-3 0  9994
2 65107  49.9982 230.2085 0008918 173.0586 187.0410 13.29321608 46239
HULIANWANG DIGUI-51     
1 65108U 25168C   26194.83310853 -.00000079  00000+0  96382-4 0  9993
2 65108  50.0019 230.2684 0010235 172.0859 188.0176 13.29324781 46231
HULIANWANG DIGUI-52     
1 65109U 25168D   26194.74982795 -.00000084  00000+0  87098-4 0  9994
2 65109  50.0013 230.4723 0010469 184.3674 175.7108 13.29322668 46221
HULIANWANG DIGUI-53     
1 65110U 25168E   26194.74130259 -.00000083  00000+0  88119-4 0  9990
2 65110  50.0020 230.4574 0008965 175.4311 184.6644 13.29326132 46226
HULIANWANG DIGUI-54     
1 65111U 25168F   26194.71644014 -.00000086  00000+0  81135-4 0  9991
2 65111  49.9971 230.1892 0010785 179.6338 180.4544 13.29326212 46229
HULIANWANG DIGUI-55     
1 65112U 25168G   26194.73304236 -.00000086  00000+0  80825-4 0  9998
2 65112  49.9976 230.2888 0011852 175.6911 184.4065 13.29322509 46227
HULIANWANG DIGUI-56     
1 65113U 25168H   26194.72475639 -.00000089  00000+0  75258-4 0  9991
2 65113  49.9968 230.2221 0012005 195.4549 164.5958 13.29321979 46228
HULIANWANG DIGUI-57     
1 65114U 25168J   26194.85847343 -.00000089  00000+0  75515-4 0  9997
2 65114  49.9996 229.6791 0009623 188.1400 171.9317 13.29326153 46254
HULIANWANG DIGUI-58     
1 65164U 25174A   26194.85949785  .00000074  00000+0  13944-3 0  9992
2 65164  86.4947 243.0047 0001799 100.3885 259.7451 13.24407333 44329
HULIANWANG DIGUI-59     
1 65165U 25174B   26194.86709069  .00000060  00000+0  10592-3 0  9994
2 65165  86.4908 242.8826 0001900  99.8695 260.2654 13.24407402 44323
