{"fetched_at":"2026-07-14T06:34:47.836Z","source":"https://celestrak.org/NORAD/elements/gp.php?NAME=HULIANWANG&FORMAT=JSON","constellation":"guowang","records":[{"OBJECT_NAME":"HULIANWANG DIGUI-44","OBJECT_ID":"2025-162E","EPOCH":"2026-07-13T21:30:54.498240","CLASSIFICATION_TYPE":"U","MEAN_MOTION":13.29318583,"ECCENTRICITY":0.0001436,"INCLINATION":49.9998,"RA_OF_ASC_NODE":169.8968,"ARG_OF_PERICENTER":324.9019,"MEAN_ANOMALY":35.1759,"EPHEMERIS_TYPE":0,"NORAD_CAT_ID":65047,"ELEMENT_SET_NO":999,"REV_AT_EPOCH":4692,"BSTAR":0.000031042,"MEAN_MOTION_DOT":-0.0000011,"MEAN_MOTION_DDOT":0},{"OBJECT_NAME":"HULIANWANG DIGUI-45","OBJECT_ID":"2025-162F","EPOCH":"2026-07-13T21:19:04.501920","CLASSIFICATION_TYPE":"U","MEAN_MOTION":13.29327195,"ECCENTRICITY":0.0000274,"INCLINATION":50.0027,"RA_OF_ASC_NODE":169.9372,"ARG_OF_PERICENTER":308.3107,"MEAN_ANOMALY":51.7741,"EPHEMERIS_TYPE":0,"NORAD_CAT_ID":65048,"ELEMENT_SET_NO":999,"REV_AT_EPOCH":4691,"BSTAR":0.000033331,"MEAN_MOTION_DOT":-0.00000109,"MEAN_MOTION_DDOT":0},{"OBJECT_NAME":"HULIANWANG DIGUI-46","OBJECT_ID":"2025-162G","EPOCH":"2026-07-13T21:07:04.707840","CLASSIFICATION_TYPE":"U","MEAN_MOTION":13.29326993,"ECCENTRICITY":0.0000256,"INCLINATION":50.0045,"RA_OF_ASC_NODE":169.9439,"ARG_OF_PERICENTER":304.8238,"MEAN_ANOMALY":55.261,"EPHEMERIS_TYPE":0,"NORAD_CAT_ID":65049,"ELEMENT_SET_NO":999,"REV_AT_EPOCH":4691,"BSTAR":0.000024926,"MEAN_MOTION_DOT":-0.00000112,"MEAN_MOTION_DDOT":0},{"OBJECT_NAME":"HULIANWANG DIGUI-47","OBJECT_ID":"2025-162H","EPOCH":"2026-07-13T20:55:03.096768","CLASSIFICATION_TYPE":"U","MEAN_MOTION":13.29326594,"ECCENTRICITY":0.0000284,"INCLINATION":50.0009,"RA_OF_ASC_NODE":169.8035,"ARG_OF_PERICENTER":294.7999,"MEAN_ANOMALY":65.2844,"EPHEMERIS_TYPE":0,"NORAD_CAT_ID":65050,"ELEMENT_SET_NO":999,"REV_AT_EPOCH":4691,"BSTAR":0.000016307,"MEAN_MOTION_DOT":-0.00000116,"MEAN_MOTION_DDOT":0},{"OBJECT_NAME":"HULIANWANG DIGUI-48","OBJECT_ID":"2025-162J","EPOCH":"2026-07-13T20:43:01.020000","CLASSIFICATION_TYPE":"U","MEAN_MOTION":13.29327301,"ECCENTRICITY":0.0000282,"INCLINATION":50.002,"RA_OF_ASC_NODE":169.7871,"ARG_OF_PERICENTER":307.6545,"MEAN_ANOMALY":52.4301,"EPHEMERIS_TYPE":0,"NORAD_CAT_ID":65051,"ELEMENT_SET_NO":999,"REV_AT_EPOCH":4691,"BSTAR":0.000015627,"MEAN_MOTION_DOT":-0.00000117,"MEAN_MOTION_DDOT":0},{"OBJECT_NAME":"HULIANWANG DIGUI-49","OBJECT_ID":"2025-168A","EPOCH":"2026-07-13T20:24:18.455040","CLASSIFICATION_TYPE":"U","MEAN_MOTION":13.29321883,"ECCENTRICITY":0.0008329,"INCLINATION":50.0012,"RA_OF_ASC_NODE":230.3382,"ARG_OF_PERICENTER":187.1338,"MEAN_ANOMALY":172.9417,"EPHEMERIS_TYPE":0,"NORAD_CAT_ID":65106,"ELEMENT_SET_NO":999,"REV_AT_EPOCH":4623,"BSTAR":0.000093258,"MEAN_MOTION_DOT":-8.1e-7,"MEAN_MOTION_DDOT":0},{"OBJECT_NAME":"HULIANWANG DIGUI-50","OBJECT_ID":"2025-168B","EPOCH":"2026-07-13T20:12:12.328704","CLASSIFICATION_TYPE":"U","MEAN_MOTION":13.29321608,"ECCENTRICITY":0.0008918,"INCLINATION":49.9982,"RA_OF_ASC_NODE":230.2085,"ARG_OF_PERICENTER":173.0586,"MEAN_ANOMALY":187.041,"EPHEMERIS_TYPE":0,"NORAD_CAT_ID":65107,"ELEMENT_SET_NO":999,"REV_AT_EPOCH":4623,"BSTAR":0.00010086,"MEAN_MOTION_DOT":-7.7e-7,"MEAN_MOTION_DDOT":0},{"OBJECT_NAME":"HULIANWANG DIGUI-51","OBJECT_ID":"2025-168C","EPOCH":"2026-07-13T19:59:40.576992","CLASSIFICATION_TYPE":"U","MEAN_MOTION":13.29324781,"ECCENTRICITY":0.0010235,"INCLINATION":50.0019,"RA_OF_ASC_NODE":230.2684,"ARG_OF_PERICENTER":172.0859,"MEAN_ANOMALY":188.0176,"EPHEMERIS_TYPE":0,"NORAD_CAT_ID":65108,"ELEMENT_SET_NO":999,"REV_AT_EPOCH":4623,"BSTAR":0.000096382,"MEAN_MOTION_DOT":-7.9e-7,"MEAN_MOTION_DDOT":0},{"OBJECT_NAME":"HULIANWANG DIGUI-52","OBJECT_ID":"2025-168D","EPOCH":"2026-07-13T17:59:45.134880","CLASSIFICATION_TYPE":"U","MEAN_MOTION":13.29322668,"ECCENTRICITY":0.0010469,"INCLINATION":50.0013,"RA_OF_ASC_NODE":230.4723,"ARG_OF_PERICENTER":184.3674,"MEAN_ANOMALY":175.7108,"EPHEMERIS_TYPE":0,"NORAD_CAT_ID":65109,"ELEMENT_SET_NO":999,"REV_AT_EPOCH":4622,"BSTAR":0.000087098,"MEAN_MOTION_DOT":-8.4e-7,"MEAN_MOTION_DDOT":0},{"OBJECT_NAME":"HULIANWANG DIGUI-53","OBJECT_ID":"2025-168E","EPOCH":"2026-07-13T17:47:28.543776","CLASSIFICATION_TYPE":"U","MEAN_MOTION":13.29326132,"ECCENTRICITY":0.0008965,"INCLINATION":50.002,"RA_OF_ASC_NODE":230.4574,"ARG_OF_PERICENTER":175.4311,"MEAN_ANOMALY":184.6644,"EPHEMERIS_TYPE":0,"NORAD_CAT_ID":65110,"ELEMENT_SET_NO":999,"REV_AT_EPOCH":4622,"BSTAR":0.000088119,"MEAN_MOTION_DOT":-8.3e-7,"MEAN_MOTION_DDOT":0},{"OBJECT_NAME":"HULIANWANG DIGUI-54","OBJECT_ID":"2025-168F","EPOCH":"2026-07-13T17:11:40.428096","CLASSIFICATION_TYPE":"U","MEAN_MOTION":13.29326212,"ECCENTRICITY":0.0010785,"INCLINATION":49.9971,"RA_OF_ASC_NODE":230.1892,"ARG_OF_PERICENTER":179.6338,"MEAN_ANOMALY":180.4544,"EPHEMERIS_TYPE":0,"NORAD_CAT_ID":65111,"ELEMENT_SET_NO":999,"REV_AT_EPOCH":4622,"BSTAR":0.000081135,"MEAN_MOTION_DOT":-8.6e-7,"MEAN_MOTION_DDOT":0},{"OBJECT_NAME":"HULIANWANG DIGUI-55","OBJECT_ID":"2025-168G","EPOCH":"2026-07-13T17:35:34.859904","CLASSIFICATION_TYPE":"U","MEAN_MOTION":13.29322509,"ECCENTRICITY":0.0011852,"INCLINATION":49.9976,"RA_OF_ASC_NODE":230.2888,"ARG_OF_PERICENTER":175.6911,"MEAN_ANOMALY":184.4065,"EPHEMERIS_TYPE":0,"NORAD_CAT_ID":65112,"ELEMENT_SET_NO":999,"REV_AT_EPOCH":4622,"BSTAR":0.000080825,"MEAN_MOTION_DOT":-8.6e-7,"MEAN_MOTION_DDOT":0},{"OBJECT_NAME":"HULIANWANG DIGUI-56","OBJECT_ID":"2025-168H","EPOCH":"2026-07-13T17:23:38.952096","CLASSIFICATION_TYPE":"U","MEAN_MOTION":13.29321979,"ECCENTRICITY":0.0012005,"INCLINATION":49.9968,"RA_OF_ASC_NODE":230.2221,"ARG_OF_PERICENTER":195.4549,"MEAN_ANOMALY":164.5958,"EPHEMERIS_TYPE":0,"NORAD_CAT_ID":65113,"ELEMENT_SET_NO":999,"REV_AT_EPOCH":4622,"BSTAR":0.000075258,"MEAN_MOTION_DOT":-8.9e-7,"MEAN_MOTION_DDOT":0},{"OBJECT_NAME":"HULIANWANG DIGUI-57","OBJECT_ID":"2025-168J","EPOCH":"2026-07-13T20:36:12.104352","CLASSIFICATION_TYPE":"U","MEAN_MOTION":13.29326153,"ECCENTRICITY":0.0009623,"INCLINATION":49.9996,"RA_OF_ASC_NODE":229.6791,"ARG_OF_PERICENTER":188.14,"MEAN_ANOMALY":171.9317,"EPHEMERIS_TYPE":0,"NORAD_CAT_ID":65114,"ELEMENT_SET_NO":999,"REV_AT_EPOCH":4625,"BSTAR":0.000075515,"MEAN_MOTION_DOT":-8.9e-7,"MEAN_MOTION_DDOT":0},{"OBJECT_NAME":"HULIANWANG DIGUI-58","OBJECT_ID":"2025-174A","EPOCH":"2026-07-13T20:37:40.614240","CLASSIFICATION_TYPE":"U","MEAN_MOTION":13.24407333,"ECCENTRICITY":0.0001799,"INCLINATION":86.4947,"RA_OF_ASC_NODE":243.0047,"ARG_OF_PERICENTER":100.3885,"MEAN_ANOMALY":259.7451,"EPHEMERIS_TYPE":0,"NORAD_CAT_ID":65164,"ELEMENT_SET_NO":999,"REV_AT_EPOCH":4432,"BSTAR":0.00013944,"MEAN_MOTION_DOT":7.4e-7,"MEAN_MOTION_DDOT":0},{"OBJECT_NAME":"HULIANWANG DIGUI-59","OBJECT_ID":"2025-174B","EPOCH":"2026-07-13T20:48:36.635616","CLASSIFICATION_TYPE":"U","MEAN_MOTION":13.24407402,"ECCENTRICITY":0.00019,"INCLINATION":86.4908,"RA_OF_ASC_NODE":242.8826,"ARG_OF_PERICENTER":99.8695,"MEAN_ANOMALY":260.2654,"EPHEMERIS_TYPE":0,"NORAD_CAT_ID":65165,"ELEMENT_SET_NO":999,"REV_AT_EPOCH":4432,"BSTAR":0.00010592,"MEAN_MOTION_DOT":6e-7,"MEAN_MOTION_DDOT":0}]}
